{
  "type": "FeatureCollection",
  "features": [
    {
      "type": "Feature",
      "properties": {
        "norad_id": 39777,
        "name": "IRIDIUM 33 DEB",
        "group": "iridium-33-debris",
        "lat": 78.75348009766743,
        "lon": -32.568976408986984,
        "alt_km": 663.0464150688513,
        "timestamp": "2025-12-26T18:39:32.666266+00:00",
        "meta_object_name": "IRIDIUM 33 DEB",
        "meta_object_id": "1997-051AAJ",
        "meta_epoch": "2025-12-26T05:00:39.510432",
        "meta_mean_motion": 14.56743034,
        "meta_eccentricity": 0.00605557,
        "meta_inclination": 85.9634,
        "meta_ra_of_asc_node": 168.5079,
        "meta_arg_of_pericenter": 141.5358,
        "meta_mean_anomaly": 219.019,
        "meta_ephemeris_type": 0,
        "meta_classification_type": "U",
        "meta_norad_cat_id": 39777,
        "meta_element_set_no": 999,
        "meta_rev_at_epoch": 60381,
        "meta_bstar": 0.0028913083,
        "meta_mean_motion_dot": 0.00013286,
        "meta_mean_motion_ddot": 0,
        "tle_line1": "1 39777U 97051AAJ 25360.20879063  .00013286  00000+0  28913-2 0  9990",
        "tle_line2": "2 39777  85.9634 168.5079 0060555 141.5358 219.0190 14.56743034603811"
      },
      "geometry": {
        "type": "Point",
        "coordinates": [
          -32.568976408986984,
          78.75348009766743
        ]
      }
    },
    {
      "type": "Feature",
      "properties": {
        "norad_id": 39778,
        "name": "IRIDIUM 33 DEB",
        "group": "iridium-33-debris",
        "lat": -0.8504773126561255,
        "lon": -142.8154111693615,
        "alt_km": 719.2543339978201,
        "timestamp": "2025-12-26T18:39:32.666277+00:00",
        "meta_object_name": "IRIDIUM 33 DEB",
        "meta_object_id": "1997-051AAK",
        "meta_epoch": "2025-12-25T20:21:50.179680",
        "meta_mean_motion": 14.54348903,
        "meta_eccentricity": 0.00065112,
        "meta_inclination": 86.3769,
        "meta_ra_of_asc_node": 37.534,
        "meta_arg_of_pericenter": 359.9142,
        "meta_mean_anomaly": 0.2063,
        "meta_ephemeris_type": 0,
        "meta_classification_type": "U",
        "meta_norad_cat_id": 39778,
        "meta_element_set_no": 999,
        "meta_rev_at_epoch": 60883,
        "meta_bstar": 0.00084026877,
        "meta_mean_motion_dot": 3.588e-05,
        "meta_mean_motion_ddot": 0,
        "tle_line1": "1 39778U 97051AAK 25359.84849745  .00003588  00000+0  84027-3 0  9996",
        "tle_line2": "2 39778  86.3769  37.5340 0006511 359.9142   0.2063 14.54348903608830"
      },
      "geometry": {
        "type": "Point",
        "coordinates": [
          -142.8154111693615,
          -0.8504773126561255
        ]
      }
    },
    {
      "type": "Feature",
      "properties": {
        "norad_id": 39781,
        "name": "IRIDIUM 33 DEB",
        "group": "iridium-33-debris",
        "lat": 46.04406964906088,
        "lon": -104.0316323012645,
        "alt_km": 942.1404239156991,
        "timestamp": "2025-12-26T18:39:32.666287+00:00",
        "meta_object_name": "IRIDIUM 33 DEB",
        "meta_object_id": "1997-051AAN",
        "meta_epoch": "2025-12-26T00:09:41.273280",
        "meta_mean_motion": 14.20964815,
        "meta_eccentricity": 0.01723668,
        "meta_inclination": 86.3698,
        "meta_ra_of_asc_node": 252.511,
        "meta_arg_of_pericenter": 230.4954,
        "meta_mean_anomaly": 195.4493,
        "meta_ephemeris_type": 0,
        "meta_classification_type": "U",
        "meta_norad_cat_id": 39781,
        "meta_element_set_no": 999,
        "meta_rev_at_epoch": 8295,
        "meta_bstar": 0.0048537069,
        "meta_mean_motion_dot": 0.00012243,
        "meta_mean_motion_ddot": 0,
        "tle_line1": "1 39781U 97051AAN 25360.00672770  .00012243  00000+0  48537-2 0  9995",
        "tle_line2": "2 39781  86.3698 252.5110 0172366 230.4954 195.4493 14.20964815 82957"
      },
      "geometry": {
        "type": "Point",
        "coordinates": [
          -104.0316323012645,
          46.04406964906088
        ]
      }
    },
    {
      "type": "Feature",
      "properties": {
        "norad_id": 40996,
        "name": "IRIDIUM 33 DEB",
        "group": "iridium-33-debris",
        "lat": 82.75960287336748,
        "lon": 24.991293354624716,
        "alt_km": 564.7619222462399,
        "timestamp": "2025-12-26T18:39:32.666297+00:00",
        "meta_object_name": "IRIDIUM 33 DEB",
        "meta_object_id": "1997-051ABJ",
        "meta_epoch": "2025-12-25T10:52:55.970112",
        "meta_mean_motion": 14.97048042,
        "meta_eccentricity": 0.0010436,
        "meta_inclination": 86.3519,
        "meta_ra_of_asc_node": 355.4655,
        "meta_arg_of_pericenter": 27.9702,
        "meta_mean_anomaly": 124.5027,
        "meta_ephemeris_type": 0,
        "meta_classification_type": "U",
        "meta_norad_cat_id": 40996,
        "meta_element_set_no": 999,
        "meta_rev_at_epoch": 62678,
        "meta_bstar": 0.0031302,
        "meta_mean_motion_dot": 0.00036257,
        "meta_mean_motion_ddot": 0,
        "tle_line1": "1 40996U 97051ABJ 25359.45342558  .00036257  00000+0  31302-2 0  9993",
        "tle_line2": "2 40996  86.3519 355.4655 0010436  27.9702 124.5027 14.97048042626785"
      },
      "geometry": {
        "type": "Point",
        "coordinates": [
          24.991293354624716,
          82.75960287336748
        ]
      }
    },
    {
      "type": "Feature",
      "properties": {
        "norad_id": 40998,
        "name": "IRIDIUM 33 DEB",
        "group": "iridium-33-debris",
        "lat": 82.31766404465266,
        "lon": -160.32130494112394,
        "alt_km": 730.318373299513,
        "timestamp": "2025-12-26T18:39:32.666307+00:00",
        "meta_object_name": "IRIDIUM 33 DEB",
        "meta_object_id": "1997-051ABL",
        "meta_epoch": "2025-12-26T10:09:43.353216",
        "meta_mean_motion": 14.4513968,
        "meta_eccentricity": 0.0008602,
        "meta_inclination": 86.3812,
        "meta_ra_of_asc_node": 47.8096,
        "meta_arg_of_pericenter": 47.0142,
        "meta_mean_anomaly": 8.9419,
        "meta_ephemeris_type": 0,
        "meta_classification_type": "U",
        "meta_norad_cat_id": 40998,
        "meta_element_set_no": 999,
        "meta_rev_at_epoch": 6879,
        "meta_bstar": 0.0004430311,
        "meta_mean_motion_dot": 1.57e-05,
        "meta_mean_motion_ddot": 0,
        "tle_line1": "1 40998U 97051ABL 25360.42341844  .00001570  00000+0  44303-3 0  9997",
        "tle_line2": "2 40998  86.3812  47.8096 0008602  47.0142   8.9419 14.45139680 68790"
      },
      "geometry": {
        "type": "Point",
        "coordinates": [
          -160.32130494112394,
          82.31766404465266
        ]
      }
    },
    {
      "type": "Feature",
      "properties": {
        "norad_id": 46435,
        "name": "IRIDIUM 33 DEB",
        "group": "iridium-33-debris",
        "lat": 56.73931525965812,
        "lon": -166.4033556579765,
        "alt_km": 922.4419421193234,
        "timestamp": "2025-12-26T18:39:32.666317+00:00",
        "meta_object_name": "IRIDIUM 33 DEB",
        "meta_object_id": "1997-051ABN",
        "meta_epoch": "2025-12-23T07:26:56.673024",
        "meta_mean_motion": 14.32901113,
        "meta_eccentricity": 0.02063954,
        "meta_inclination": 86.2811,
        "meta_ra_of_asc_node": 189.3996,
        "meta_arg_of_pericenter": 241.8575,
        "meta_mean_anomaly": 300.4526,
        "meta_ephemeris_type": 0,
        "meta_classification_type": "U",
        "meta_norad_cat_id": 46435,
        "meta_element_set_no": 999,
        "meta_rev_at_epoch": 8067,
        "meta_bstar": 0.0098042113,
        "meta_mean_motion_dot": 0.00034078,
        "meta_mean_motion_ddot": 0,
        "tle_line1": "1 46435U 97051ABN 25357.31037816  .00034078  00000+0  98042-2 0  9991",
        "tle_line2": "2 46435  86.2811 189.3996 0206395 241.8575 300.4526 14.32901113 80678"
      },
      "geometry": {
        "type": "Point",
        "coordinates": [
          -166.4033556579765,
          56.73931525965812
        ]
      }
    },
    {
      "type": "Feature",
      "properties": {
        "norad_id": 46734,
        "name": "IRIDIUM 33 DEB",
        "group": "iridium-33-debris",
        "lat": -4.992579917739294,
        "lon": -3.6259950021719978,
        "alt_km": 745.0608495752822,
        "timestamp": "2025-12-26T18:39:32.666327+00:00",
        "meta_object_name": "IRIDIUM 33 DEB",
        "meta_object_id": "1997-051ABR",
        "meta_epoch": "2025-12-23T07:42:11.180736",
        "meta_mean_motion": 14.41950916,
        "meta_eccentricity": 0.00375691,
        "meta_inclination": 86.2641,
        "meta_ra_of_asc_node": 358.2178,
        "meta_arg_of_pericenter": 299.6503,
        "meta_mean_anomaly": 123.5651,
        "meta_ephemeris_type": 0,
        "meta_classification_type": "U",
        "meta_norad_cat_id": 46734,
        "meta_element_set_no": 999,
        "meta_rev_at_epoch": 63163,
        "meta_bstar": 0.0010295637,
        "meta_mean_motion_dot": 3.42e-05,
        "meta_mean_motion_ddot": 0,
        "tle_line1": "1 46734U 97051ABR 25357.32096274  .00003420  00000+0  10296-2 0  9999",
        "tle_line2": "2 46734  86.2641 358.2178 0037569 299.6503 123.5651 14.41950916631633"
      },
      "geometry": {
        "type": "Point",
        "coordinates": [
          -3.6259950021719978,
          -4.992579917739294
        ]
      }
    }
  ]
}